STARLINK-5602           
1 55743U 23028C   26068.87403315  .00000013  00000+0  88497-5 0  9996
2 55743  69.9994 244.1559 0003074 267.2991  92.7816 14.98330331166069
SHIYAN-24C 02           
1 58651U 23206B   26068.89175597  .00002770  00000+0  23935-3 0  9991
2 58651  97.3985  41.8071 0003465  80.6641 279.4974 14.97980163120443
